[{"OBJECT_NAME":"WORLDVIEW-1 (WV-1)","OBJECT_ID":"2007-041A","EPOCH":"2026-04-26T10:24:36.111456","MEAN_MOTION":15.24316493,"ECCENTRICITY":0.00018392,"INCLINATION":97.3876,"RA_OF_ASC_NODE":236.9019,"ARG_OF_PERICENTER":197.8907,"MEAN_ANOMALY":162.2266,"EPHEMERIS_TYPE":0,"CLASSIFICATION_TYPE":"U","NORAD_CAT_ID":32060,"ELEMENT_SET_NO":999,"REV_AT_EPOCH":3499,"BSTAR":0.00033176018,"MEAN_MOTION_DOT":8.043e-5,"MEAN_MOTION_DDOT":0},{"OBJECT_NAME":"YAOGAN-3","OBJECT_ID":"2007-055A","EPOCH":"2026-04-26T13:48:34.053696","MEAN_MOTION":14.90581396,"ECCENTRICITY":0.00014719,"INCLINATION":97.8206,"RA_OF_ASC_NODE":146.9608,"ARG_OF_PERICENTER":95.2777,"MEAN_ANOMALY":264.8609,"EPHEMERIS_TYPE":0,"CLASSIFICATION_TYPE":"U","NORAD_CAT_ID":32289,"ELEMENT_SET_NO":999,"REV_AT_EPOCH":99817,"BSTAR":0.00028520247,"MEAN_MOTION_DOT":2.735e-5,"MEAN_MOTION_DDOT":0},{"OBJECT_NAME":"COSMO-SKYMED 2","OBJECT_ID":"2007-059A","EPOCH":"2026-04-26T13:59:31.627680","MEAN_MOTION":14.8216008,"ECCENTRICITY":0.00013996,"INCLINATION":97.8887,"RA_OF_ASC_NODE":300.9288,"ARG_OF_PERICENTER":92.4017,"MEAN_ANOMALY":267.7357,"EPHEMERIS_TYPE":0,"CLASSIFICATION_TYPE":"U","NORAD_CAT_ID":32376,"ELEMENT_SET_NO":999,"REV_AT_EPOCH":99435,"BSTAR":6.7273215e-5,"MEAN_MOTION_DOT":4.83e-6,"MEAN_MOTION_DDOT":0},{"OBJECT_NAME":"RADARSAT-2","OBJECT_ID":"2007-061A","EPOCH":"2026-04-26T14:37:17.064192","MEAN_MOTION":14.29982559,"ECCENTRICITY":0.00012463,"INCLINATION":98.5804,"RA_OF_ASC_NODE":124.2762,"ARG_OF_PERICENTER":82.9821,"MEAN_ANOMALY":277.1503,"EPHEMERIS_TYPE":0,"CLASSIFICATION_TYPE":"U","NORAD_CAT_ID":32382,"ELEMENT_SET_NO":999,"REV_AT_EPOCH":95858,"BSTAR":4.2499446e-5,"MEAN_MOTION_DOT":6.6e-7,"MEAN_MOTION_DDOT":0},{"OBJECT_NAME":"CARTOSAT-2A","OBJECT_ID":"2008-021A","EPOCH":"2026-04-26T20:08:04.956000","MEAN_MOTION":14.79171565,"ECCENTRICITY":0.0010311,"INCLINATION":97.7683,"RA_OF_ASC_NODE":167.2907,"ARG_OF_PERICENTER":280.5916,"MEAN_ANOMALY":79.4134,"EPHEMERIS_TYPE":0,"CLASSIFICATION_TYPE":"U","NORAD_CAT_ID":32783,"ELEMENT_SET_NO":999,"REV_AT_EPOCH":97121,"BSTAR":0.0001112,"MEAN_MOTION_DOT":7.75e-6,"MEAN_MOTION_DDOT":0},{"OBJECT_NAME":"HUANJING 1A (HJ-1A)","OBJECT_ID":"2008-041A","EPOCH":"2026-04-26T20:26:41.123040","MEAN_MOTION":14.83866954,"ECCENTRICITY":0.0017889,"INCLINATION":97.667,"RA_OF_ASC_NODE":104.6862,"ARG_OF_PERICENTER":310.915,"MEAN_ANOMALY":49.0515,"EPHEMERIS_TYPE":0,"CLASSIFICATION_TYPE":"U","NORAD_CAT_ID":33320,"ELEMENT_SET_NO":999,"REV_AT_EPOCH":95079,"BSTAR":0.0001796,"MEAN_MOTION_DOT":1.442e-5,"MEAN_MOTION_DDOT":0},{"OBJECT_NAME":"HUANJING 1B (HJ-1B)","OBJECT_ID":"2008-041B","EPOCH":"2026-04-26T20:46:41.408256","MEAN_MOTION":14.83222481,"ECCENTRICITY":0.0036337,"INCLINATION":97.6513,"RA_OF_ASC_NODE":108.0241,"ARG_OF_PERICENTER":354.5544,"MEAN_ANOMALY":5.527,"EPHEMERIS_TYPE":0,"CLASSIFICATION_TYPE":"U","NORAD_CAT_ID":33321,"ELEMENT_SET_NO":999,"REV_AT_EPOCH":95080,"BSTAR":0.00016817,"MEAN_MOTION_DOT":1.337e-5,"MEAN_MOTION_DDOT":0},{"OBJECT_NAME":"GEOEYE 1","OBJECT_ID":"2008-042A","EPOCH":"2026-04-26T18:42:42.378624","MEAN_MOTION":14.64676228,"ECCENTRICITY":0.0003511,"INCLINATION":98.1249,"RA_OF_ASC_NODE":191.3598,"ARG_OF_PERICENTER":206.094,"MEAN_ANOMALY":154.0086,"EPHEMERIS_TYPE":0,"CLASSIFICATION_TYPE":"U","NORAD_CAT_ID":33331,"ELEMENT_SET_NO":999,"REV_AT_EPOCH":94262,"BSTAR":0.00010236,"MEAN_MOTION_DOT":4.97e-6,"MEAN_MOTION_DDOT":0},{"OBJECT_NAME":"THEOS","OBJECT_ID":"2008-049A","EPOCH":"2026-04-26T19:37:38.478144","MEAN_MOTION":14.20124145,"ECCENTRICITY":0.0001295,"INCLINATION":98.5611,"RA_OF_ASC_NODE":175.7595,"ARG_OF_PERICENTER":91.5732,"MEAN_ANOMALY":268.5593,"EPHEMERIS_TYPE":0,"CLASSIFICATION_TYPE":"U","NORAD_CAT_ID":33396,"ELEMENT_SET_NO":999,"REV_AT_EPOCH":91067,"BSTAR":-0.0001137,"MEAN_MOTION_DOT":-2.85e-6,"MEAN_MOTION_DDOT":0},{"OBJECT_NAME":"COSMO-SKYMED 3","OBJECT_ID":"2008-054A","EPOCH":"2026-04-26T19:26:01.718304","MEAN_MOTION":15.06620472,"ECCENTRICITY":0.0017167,"INCLINATION":97.8361,"RA_OF_ASC_NODE":334.523,"ARG_OF_PERICENTER":81.5044,"MEAN_ANOMALY":278.8128,"EPHEMERIS_TYPE":0,"CLASSIFICATION_TYPE":"U","NORAD_CAT_ID":33412,"ELEMENT_SET_NO":999,"REV_AT_EPOCH":94920,"BSTAR":0.00025267,"MEAN_MOTION_DOT":3.691e-5,"MEAN_MOTION_DDOT":0},{"OBJECT_NAME":"YAOGAN-4","OBJECT_ID":"2008-061A","EPOCH":"2026-04-26T19:49:24.729888","MEAN_MOTION":14.83101326,"ECCENTRICITY":0.001302,"INCLINATION":97.9288,"RA_OF_ASC_NODE":50.7256,"ARG_OF_PERICENTER":235.0658,"MEAN_ANOMALY":124.9333,"EPHEMERIS_TYPE":0,"CLASSIFICATION_TYPE":"U","NORAD_CAT_ID":33446,"ELEMENT_SET_NO":999,"REV_AT_EPOCH":93805,"BSTAR":0.00012179,"MEAN_MOTION_DOT":9.39e-6,"MEAN_MOTION_DDOT":0},{"OBJECT_NAME":"GOSAT (IBUKI)","OBJECT_ID":"2009-002A","EPOCH":"2026-04-26T14:13:27.981408","MEAN_MOTION":14.67542544,"ECCENTRICITY":0.0001323,"INCLINATION":98.0822,"RA_OF_ASC_NODE":228.3364,"ARG_OF_PERICENTER":109.6365,"MEAN_ANOMALY":250.4982,"EPHEMERIS_TYPE":0,"CLASSIFICATION_TYPE":"U","NORAD_CAT_ID":33492,"ELEMENT_SET_NO":999,"REV_AT_EPOCH":92389,"BSTAR":9.3603e-5,"MEAN_MOTION_DOT":4.83e-6,"MEAN_MOTION_DDOT":0},{"OBJECT_NAME":"DEIMOS-1","OBJECT_ID":"2009-041A","EPOCH":"2026-04-26T18:32:26.897856","MEAN_MOTION":14.75181674,"ECCENTRICITY":0.0001982,"INCLINATION":97.7344,"RA_OF_ASC_NODE":276.2464,"ARG_OF_PERICENTER":45.6303,"MEAN_ANOMALY":314.5068,"EPHEMERIS_TYPE":0,"CLASSIFICATION_TYPE":"U","NORAD_CAT_ID":35681,"ELEMENT_SET_NO":999,"REV_AT_EPOCH":89930,"BSTAR":9.0622e-5,"MEAN_MOTION_DOT":5.65e-6,"MEAN_MOTION_DDOT":0},{"OBJECT_NAME":"DUBAISAT-1","OBJECT_ID":"2009-041B","EPOCH":"2026-04-26T19:21:19.772640","MEAN_MOTION":14.75026979,"ECCENTRICITY":0.0009392,"INCLINATION":97.9971,"RA_OF_ASC_NODE":250.6521,"ARG_OF_PERICENTER":231.0094,"MEAN_ANOMALY":129.0279,"EPHEMERIS_TYPE":0,"CLASSIFICATION_TYPE":"U","NORAD_CAT_ID":35682,"ELEMENT_SET_NO":999,"REV_AT_EPOCH":89752,"BSTAR":0.00017578,"MEAN_MOTION_DOT":1.133e-5,"MEAN_MOTION_DDOT":0},{"OBJECT_NAME":"OCEANSAT-2","OBJECT_ID":"2009-051A","EPOCH":"2026-04-26T20:56:22.227936","MEAN_MOTION":13.9964984,"ECCENTRICITY":0.0016027,"INCLINATION":98.2309,"RA_OF_ASC_NODE":108.8556,"ARG_OF_PERICENTER":23.8188,"MEAN_ANOMALY":336.3717,"EPHEMERIS_TYPE":0,"CLASSIFICATION_TYPE":"U","NORAD_CAT_ID":35931,"ELEMENT_SET_NO":999,"REV_AT_EPOCH":87215,"BSTAR":-9.0839e-5,"MEAN_MOTION_DOT":-1.7e-6,"MEAN_MOTION_DDOT":0},{"OBJECT_NAME":"WORLDVIEW-2 (WV-2)","OBJECT_ID":"2009-055A","EPOCH":"2026-04-26T19:26:32.231328","MEAN_MOTION":14.37928595,"ECCENTRICITY":0.0004685,"INCLINATION":98.4691,"RA_OF_ASC_NODE":190.9837,"ARG_OF_PERICENTER":28.9753,"MEAN_ANOMALY":331.1693,"EPHEMERIS_TYPE":0,"CLASSIFICATION_TYPE":"U","NORAD_CAT_ID":35946,"ELEMENT_SET_NO":999,"REV_AT_EPOCH":86826,"BSTAR":5.4606e-5,"MEAN_MOTION_DOT":1.21e-6,"MEAN_MOTION_DDOT":0},{"OBJECT_NAME":"SMOS","OBJECT_ID":"2009-059A","EPOCH":"2026-04-26T18:17:40.458912","MEAN_MOTION":14.39745145,"ECCENTRICITY":0.0001197,"INCLINATION":98.4435,"RA_OF_ASC_NODE":304.8484,"ARG_OF_PERICENTER":92.7695,"MEAN_ANOMALY":267.363,"EPHEMERIS_TYPE":0,"CLASSIFICATION_TYPE":"U","NORAD_CAT_ID":36036,"ELEMENT_SET_NO":999,"REV_AT_EPOCH":86605,"BSTAR":9.1327e-5,"MEAN_MOTION_DOT":2.43e-6,"MEAN_MOTION_DDOT":0}]
