WORLDVIEW-1 (WV-1)      
1 32060U 07041A   26116.43375129  .00008043  00000+0  33176-3 0  9990
2 32060  97.3876 236.9019 0001839 197.8907 162.2266 15.24316493 34993
YAOGAN-3                
1 32289U 07055A   26116.57539414  .00002735  00000+0  28520-3 0  9991
2 32289  97.8206 146.9608 0001471  95.2777 264.8609 14.90581396998177
COSMO-SKYMED 2          
1 32376U 07059A   26116.58300495  .00000483  00000+0  67273-4 0  9995
2 32376  97.8887 300.9288 0001399  92.4017 267.7357 14.82160080994352
RADARSAT-2              
1 32382U 07061A   26116.60922528  .00000066  00000+0  42499-4 0  9995
2 32382  98.5804 124.2762 0001246  82.9821 277.1503 14.29982559958585
CARTOSAT-2A             
1 32783U 08021A   26116.83894625  .00000775  00000+0  11120-3 0  9991
2 32783  97.7683 167.2907 0010311 280.5916  79.4134 14.79171565971218
HUANJING 1A (HJ-1A)     
1 33320U 08041A   26116.85186485  .00001442  00000+0  17960-3 0  9991
2 33320  97.6670 104.6862 0017889 310.9150  49.0515 14.83866954950795
HUANJING 1B (HJ-1B)     
1 33321U 08041B   26116.86575704  .00001337  00000+0  16817-3 0  9992
2 33321  97.6513 108.0241 0036337 354.5544   5.5270 14.83222481950809
GEOEYE 1                
1 33331U 08042A   26116.77965716  .00000497  00000+0  10236-3 0  9995
2 33331  98.1249 191.3598 0003511 206.0940 154.0086 14.64676228942628
THEOS                   
1 33396U 08049A   26116.81780646 -.00000285  00000+0 -11370-3 0  9992
2 33396  98.5611 175.7595 0001295  91.5732 268.5593 14.20124145910674
COSMO-SKYMED 3          
1 33412U 08054A   26116.80974211  .00003691  00000+0  25267-3 0  9991
2 33412  97.8361 334.5230 0017167  81.5044 278.8128 15.06620472949206
YAOGAN-4                
1 33446U 08061A   26116.82598067  .00000939  00000+0  12179-3 0  9999
2 33446  97.9288  50.7256 0013020 235.0658 124.9333 14.83101326938054
GOSAT (IBUKI)           
1 33492U 09002A   26116.59268497  .00000483  00000+0  93603-4 0  9997
2 33492  98.0822 228.3364 0001323 109.6365 250.4982 14.67542544923892
DEIMOS-1                
1 35681U 09041A   26116.77253354  .00000565  00000+0  90622-4 0  9997
2 35681  97.7344 276.2464 0001982  45.6303 314.5068 14.75181674899301
DUBAISAT-1              
1 35682U 09041B   26116.80647885  .00001133  00000+0  17578-3 0  9998
2 35682  97.9971 250.6521 0009392 231.0094 129.0279 14.75026979897522
OCEANSAT-2              
1 35931U 09051A   26116.87247949 -.00000170  00000+0 -90839-4 0  9994
2 35931  98.2309 108.8556 0016027  23.8188 336.3717 13.99649840872159
WORLDVIEW-2 (WV-2)      
1 35946U 09055A   26116.81009527  .00000121  00000+0  54606-4 0  9992
2 35946  98.4691 190.9837 0004685  28.9753 331.1693 14.37928595868269
SMOS                    
1 36036U 09059A   26116.76227383  .00000243  00000+0  91327-4 0  9999
2 36036  98.4435 304.8484 0001197  92.7695 267.3630 14.39745145866055
